NORAD_CAT_ID,OBJECT_NAME,OBJECT_TYPE,EPOCH,MEAN_MOTION,ECCENTRICITY,INCLINATION,RA_OF_ASC_NODE,ARG_OF_PERICENTER,MEAN_ANOMALY,BSTAR,MEAN_MOTION_DOT,MEAN_MOTION_DDOT,TLE_LINE0,TLE_LINE1,TLE_LINE2,SEMIMAJOR_AXIS,PERIOD,APOGEE,PERIGEE,DECAYED
49460.0,STARLINK-3140,PAYLOAD,2024-05-26 13:59:33,15.08842577,0.00015,53.217,266.5393,63.2528,296.8618,2.4969e-05,1.09e-06,0.0,0 STARLINK-3140,1 49460U 21104BE  24147.58302771  .00000109  00000-0  24969-4 0  9996,2 49460  53.2170 266.5393 0001500  63.2528 296.8618 15.08842577140326,6917.873,95.437,540.775,538.7,0.0
49460.0,STARLINK-3140,PAYLOAD,2024-05-26 17:10:19,15.08845811,0.0001285,53.2172,265.9447,92.5399,267.574,6.9333e-05,8.16e-06,0.0,0 STARLINK-3140,1 49460U 21104BE  24147.71550471  .00000816  00000-0  69333-4 0  9992,2 49460  53.2172 265.9447 0001285  92.5399 267.5740 15.08845811140349,6917.863,95.437,540.617,538.839,0.0
49460.0,STARLINK-3140,PAYLOAD,2024-05-27 13:50:20,15.08854429,0.0001127,53.2169,262.0866,73.9729,286.1387,0.00023304,3.424e-05,0.0,0 STARLINK-3140,1 49460U 21104BE  24148.57662455  .00003424  00000-0  23304-3 0  9998,2 49460  53.2169 262.0866 0001127  73.9729 286.1387 15.08854429141567,6917.836,95.437,540.481,538.922,0.0
49460.0,STARLINK-3140,PAYLOAD,2024-05-27 17:01:06,15.0884295,0.0001661,53.2185,261.4812,96.0576,264.0605,5.2887e-05,5.54e-06,0.0,0 STARLINK-3140,1 49460U 21104BE  24148.70910826  .00000554  00000-0  52887-4 0  9991,2 49460  53.2185 261.4812 0001661  96.0576 264.0605 15.08842950141584,6917.871,95.437,540.885,538.587,0.0
49460.0,STARLINK-3140,PAYLOAD,2024-05-28 13:41:06,15.08866624,0.0001454,53.2179,257.6212,98.8967,261.219,-0.00011776,-2.163e-05,0.0,0 STARLINK-3140,1 49460U 21104BE  24149.57021866 -.00002163  00000-0 -11776-3 0  9995,2 49460  53.2179 257.6212 0001454  98.8967 261.2190 15.08866624141719,6917.799,95.436,540.67,538.658,0.0
49460.0,STARLINK-3140,PAYLOAD,2024-05-29 11:56:31,15.0884286,0.0001397,53.2169,253.4569,95.3128,264.8023,7.575e-06,-1.67e-06,0.0,0 STARLINK-3140,1 49460U 21104BE  24150.49758798 -.00000167  00000-0  75750-5 0  9994,2 49460  53.2169 253.4569 0001397  95.3128 264.8023 15.08842860141859,6917.872,95.437,540.703,538.77,0.0
49460.0,STARLINK-3140,PAYLOAD,2024-05-29 13:31:54,15.08844277,0.0001358,53.2169,253.1575,103.9061,256.2082,2.5642e-05,1.2e-06,0.0,0 STARLINK-3140,1 49460U 21104BE  24150.56382581  .00000120  00000-0  25642-4 0  9997,2 49460  53.2169 253.1575 0001358 103.9061 256.2082 15.08844277140776,6917.867,95.437,540.672,538.793,0.0
49460.0,STARLINK-3140,PAYLOAD,2024-05-30 13:22:41,15.08848282,0.0001297,53.2187,248.7024,89.2171,270.8969,-8.3061e-05,-1.61e-05,0.0,0 STARLINK-3140,1 49460U 21104BE  24151.55742762 -.00001610  00000-0 -83061-4 0  9994,2 49460  53.2187 248.7024 0001297  89.2171 270.8969 15.08848282142010,6917.855,95.437,540.617,538.823,0.0
49460.0,STARLINK-3140,PAYLOAD,2024-05-31 11:38:05,15.08846542,0.0001348,53.2187,244.5401,88.3959,271.7187,0.00017624,2.519e-05,0.0,0 STARLINK-3140,1 49460U 21104BE  24152.48478190  .00002519  00000-0  17624-3 0  9996,2 49460  53.2187 244.5401 0001348  88.3959 271.7187 15.08846542141067,6917.86,95.437,540.658,538.793,0.0
49460.0,STARLINK-3140,PAYLOAD,2024-05-31 13:13:28,15.08850925,0.0001213,53.2184,244.2423,87.9315,272.1816,0.00020537,2.983e-05,0.0,0 STARLINK-3140,1 49460U 21104BE  24152.55101940  .00002983  00000-0  20537-3 0  9992,2 49460  53.2184 244.2423 0001213  87.9315 272.1816 15.08850925141072,6917.847,95.437,540.551,538.873,0.0
49460.0,STARLINK-3140,PAYLOAD,2024-05-31 22:45:47,15.08836275,0.0001266,53.218,242.4571,88.8641,271.2496,7.9108e-05,9.71e-06,0.0,0 STARLINK-3140,1 49460U 21104BE  24152.94847046  .00000971  00000-0  79108-4 0  9993,2 49460  53.2180 242.4571 0001266  88.8641 271.2496 15.08836275142226,6917.892,95.438,540.633,538.881,0.0
49460.0,STARLINK-3140,PAYLOAD,2024-06-01 13:04:17,15.08822658,0.0001387,53.2182,239.7788,74.9098,285.2048,-7.4012e-05,-1.465e-05,0.0,0 STARLINK-3140,1 49460U 21104BE  24153.54464888 -.00001465  00000-0 -74012-4 0  9999,2 49460  53.2182 239.7788 0001387  74.9098 285.2048 15.08822658142311,6917.933,95.439,540.758,538.839,0.0
49460.0,STARLINK-3140,PAYLOAD,2024-06-01 14:39:41,15.08820031,0.0001338,53.2179,239.4827,79.6898,280.4245,-8.8097e-05,-1.689e-05,0.0,0 STARLINK-3140,1 49460U 21104BE  24153.61089160 -.00001689  00000-0 -88097-4 0  9999,2 49460  53.2179 239.4827 0001338  79.6898 280.4245 15.08820031141233,6917.941,95.439,540.732,538.881,0.0
49460.0,STARLINK-3140,PAYLOAD,2024-06-02 11:19:39,15.0885601,0.0001762,53.2186,235.6197,87.1224,272.997,0.00011853,1.6e-05,0.0,0 STARLINK-3140,1 49460U 21104BE  24154.47198861  .00001600  00000-0  11853-3 0  9999,2 49460  53.2186 235.6197 0001762  87.1224 272.9970 15.08856010142459,6917.831,95.437,540.915,538.478,0.0
49460.0,STARLINK-3140,PAYLOAD,2024-06-03 11:10:26,15.08845174,0.0001262,53.2167,231.1557,84.7301,275.3835,0.00027614,4.11e-05,0.0,0 STARLINK-3140,1 49460U 21104BE  24155.46558582  .00004110  00000-0  27614-3 0  9990,2 49460  53.2167 231.1557 0001262  84.7301 275.3835 15.08845174142606,6917.865,95.437,540.603,538.857,0.0
49460.0,STARLINK-3140,PAYLOAD,2024-06-03 14:21:12,15.08849818,0.0001444,53.217,230.5618,86.6569,273.4588,0.00037575,5.699e-05,0.0,0 STARLINK-3140,1 49460U 21104BE  24155.59806070  .00005699  00000-0  37575-3 0  9992,2 49460  53.2170 230.5618 0001444  86.6569 273.4588 15.08849818141534,6917.85,95.437,540.714,538.716,0.0
49460.0,STARLINK-3140,PAYLOAD,2024-06-03 22:18:09,15.08836169,0.0001815,53.2167,229.0753,81.4023,278.7175,0.00018474,2.653e-05,0.0,0 STARLINK-3140,1 49460U 21104BE  24155.92927575  .00002653  00000-0  18474-3 0  9997,2 49460  53.2167 229.0753 0001815  81.4023 278.7175 15.08836169141583,6917.892,95.438,541.013,538.502,0.0
49460.0,STARLINK-3140,PAYLOAD,2024-06-04 04:39:41,15.08851912,0.0002079,53.2164,227.8875,77.6148,282.5077,-1.1513e-05,-4.72e-06,0.0,0 STARLINK-3140,1 49460U 21104BE  24156.19423207 -.00000472  00000-0 -11513-4 0  9997,2 49460  53.2164 227.8875 0002079  77.6148 282.5077 15.08851912142712,6917.844,95.437,541.147,538.271,0.0
49460.0,STARLINK-3140,PAYLOAD,2024-06-04 11:01:14,15.08849145,0.0001826,53.2156,226.6971,79.4784,280.6414,-3.7203e-05,-8.8e-06,0.0,0 STARLINK-3140,1 49460U 21104BE  24156.45919204 -.00000880  00000-0 -37203-4 0  9990,2 49460  53.2156 226.6971 0001826  79.4784 280.6414 15.08849145141664,6917.852,95.437,540.981,538.454,0.0
49460.0,STARLINK-3140,PAYLOAD,2024-06-04 22:08:55,15.08850913,0.0001464,53.2163,224.6148,82.5962,277.5196,-4.3074e-05,-9.74e-06,0.0,0 STARLINK-3140,1 49460U 21104BE  24156.92286599 -.00000974  00000-0 -43074-4 0  9993,2 49460  53.2163 224.6148 0001464  82.5962 277.5196 15.08850913141732,6917.847,95.437,540.725,538.699,0.0
49460.0,STARLINK-3140,PAYLOAD,2024-06-05 10:52:00,15.08843053,0.0001409,53.217,222.2357,88.3403,271.775,-3.1361e-05,-7.87e-06,0.0,0 STARLINK-3140,1 49460U 21104BE  24157.45278821 -.00000787  00000-0 -31361-4 0  9999,2 49460  53.2170 222.2357 0001409  88.3403 271.7750 15.08843053142908,6917.871,95.437,540.711,538.761,0.0
49460.0,STARLINK-3140,PAYLOAD,2024-06-06 04:21:15,15.08832366,0.0001522,53.2179,218.9637,88.1462,271.9704,0.00010904,1.447e-05,0.0,0 STARLINK-3140,1 49460U 21104BE  24158.18143162  .00001447  00000-0  10904-3 0  9990,2 49460  53.2179 218.9637 0001522  88.1462 271.9704 15.08832366143018,6917.904,95.438,540.822,538.716,0.0
49460.0,STARLINK-3140,PAYLOAD,2024-06-06 10:42:48,15.08836992,0.0001511,53.2174,217.7752,84.2626,275.8538,0.0001223,1.659e-05,0.0,0 STARLINK-3140,1 49460U 21104BE  24158.44638926  .00001659  00000-0  12230-3 0  9995,2 49460  53.2174 217.7752 0001511  84.2626 275.8538 15.08836992141964,6917.89,95.438,540.8,538.709,0.0
49460.0,STARLINK-3140,PAYLOAD,2024-06-07 08:58:12,15.08833572,0.0001444,53.2165,213.6131,84.158,275.9577,6.474e-05,7.42e-06,0.0,0 STARLINK-3140,1 49460U 21104BE  24159.37375559  .00000742  00000-0  64740-4 0  9994,2 49460  53.2165 213.6131 0001444  84.1580 275.9577 15.08833572143195,6917.9,95.438,540.764,538.766,0.0
49460.0,STARLINK-3140,PAYLOAD,2024-06-07 20:05:54,15.08839224,0.0001436,53.2164,211.531,83.7173,276.3983,9.8496e-05,1.28e-05,0.0,0 STARLINK-3140,1 49460U 21104BE  24159.83743239  .00001280  00000-0  98496-4 0  9992,2 49460  53.2164 211.5310 0001436  83.7173 276.3983 15.08839224142177,6917.883,95.438,540.741,538.754,0.0
49460.0,STARLINK-3140,PAYLOAD,2024-06-08 13:35:07,15.08850054,0.000139,53.217,208.2609,88.7457,271.3695,0.0001641,2.325e-05,0.0,0 STARLINK-3140,1 49460U 21104BE  24160.56606436  .00002325  00000-0  16410-3 0  9997,2 49460  53.2170 208.2609 0001390  88.7457 271.3695 15.08850054142288,6917.85,95.437,540.676,538.753,0.0
49460.0,STARLINK-3140,PAYLOAD,2024-06-08 19:56:40,15.08845693,0.0001189,53.2157,207.0672,64.0634,296.048,8.0948e-05,1.001e-05,0.0,0 STARLINK-3140,1 49460U 21104BE  24160.83102751  .00001001  00000-0  80948-4 0  9996,2 49460  53.2157 207.0672 0001189  64.0634 296.0480 15.08845693143415,6917.863,95.437,540.551,538.905,0.0
49460.0,STARLINK-3140,PAYLOAD,2024-06-09 02:18:14,15.0883548,0.000204,53.2168,205.8818,76.3295,283.7924,4.0071e-05,3.5e-06,0.0,0 STARLINK-3140,1 49460U 21104BE  24161.09600060  .00000350  00000-0  40071-4 0  9990,2 49460  53.2168 205.8818 0002040  76.3295 283.7924 15.08835480143454,6917.894,95.438,541.17,538.348,0.0
49460.0,STARLINK-3140,PAYLOAD,2024-06-09 10:15:10,15.08825981,0.0001417,53.2172,204.3955,77.131,282.984,-4.0166e-05,-9.27e-06,0.0,0 STARLINK-3140,1 49460U 21104BE  24161.42721024 -.00000927  00000-0 -40166-4 0  9998,2 49460  53.2172 204.3955 0001417  77.1310 282.9840 15.08825981143508,6917.923,95.438,540.769,538.808,0.0
49460.0,STARLINK-3140,PAYLOAD,2024-06-09 19:47:29,15.08834999,0.0001487,53.2178,202.612,84.2724,275.8437,-6.3194e-06,-3.89e-06,0.0,0 STARLINK-3140,1 49460U 21104BE  24161.82464591 -.00000389  00000-0 -63194-5 0  9994,2 49460  53.2178 202.6120 0001487  84.2724 275.8437 15.08834999143562,6917.896,95.438,540.789,538.732,0.0
